*******************************************************************************
Ephemeris / WWW_USER Mon Jul 15 19:04:53 2024 Pasadena, USA      / Horizons    
*******************************************************************************
Target body name: (2018 RD5)                      {source: JPL#11}
Center body name: Earth (399)                     {source: DE441}
Center-site name: Gemini South Obs., Cerro Pachon
*******************************************************************************
Start time      : A.D. 2018-Dec-23 23:54:00.0000 UT      
Stop  time      : A.D. 2018-Dec-24 09:30:00.0000 UT      
Step-size       : 1 minutes
*******************************************************************************
Target pole/equ : undefined
Target radii    : undefined                                                    
Center geodetic : 289.2634, -30.2406227, 2.71233  {E-lon(deg),Lat(deg),Alt(km)}
Center cylindric: 289.2634,5517.21435,-3194.81213 {E-lon(deg),Dxy(km),Dz(km)}
Center pole/equ : ITRF93                          {East-longitude positive}
Center radii    : 6378.137, 6378.137, 6356.752 km {Equator_a, b, pole_c}       
Target primary  : Sun
Vis. interferer : MOON (R_eq= 1737.400) km        {source: DE441}
Rel. light bend : Sun                             {source: DE441}
Rel. lght bnd GM: 1.3271E+11 km^3/s^2                                          
Small-body perts: Yes                             {source: SB441-N16}
Atmos refraction: NO (AIRLESS)
RA format       : HMS
Time format     : CAL 
Calendar mode   : Mixed Julian/Gregorian
RTS-only print  : NO       
EOP file        : eop.240715.p241008                                           
EOP coverage    : DATA-BASED 1962-JAN-20 TO 2024-JUL-15. PREDICTS-> 2024-OCT-07
Units conversion: 1 au= 149597870.700 km, c= 299792.458 km/s, 1 day= 86400.0 s 
Table cut-offs 1: Elevation (-90.0deg=NO ),Airmass (>38.000=NO), Daylight (YES)
Table cut-offs 2: Solar elongation (  0.0,180.0=NO ),Local Hour Angle( 0.0=NO )
Table cut-offs 3: RA/DEC angular rate (     0.0=NO )                           
*******************************************************************************
Initial IAU76/J2000 heliocentric ecliptic osculating elements (au, days, deg.):
  EPOCH=  2458378.5 ! 2018-Sep-17.00 (TDB)         Residual RMS= .55339        
   EC= .2891632988519429   QR= 1.009650912138325   TP= 2458360.6433297051      
   OM= 171.0145363394364   W=  163.7983400129293   IN= 8.474307805886117       
  Equivalent ICRF heliocentric cartesian coordinates (au, au/d):
   X= 1.017757009008053E+00  Y=-8.967367621791844E-02  Z=-4.840656937149759E-02
  VX= 3.309922676318766E-03 VY= 1.832358809606965E-02 VZ= 4.854018792897502E-03
Asteroid physical parameters (km, seconds, rotational period in hours):        
   GM= n.a.                RAD= n.a.               ROTPER= n.a.                
   H= 25.9                 G= .150                 B-V= n.a.                   
                           ALBEDO= n.a.            STYP= n.a.                  
*******************************************************************************
 Date__(UT)__HR:MN     R.A._________(ICRF)_________DEC
******************************************************
$$SOE
 2018-Dec-24 08:06 Am  03 06 24.663217 -05 21 06.28548
 2018-Dec-24 08:07 Am  03 06 24.699749 -05 21 05.38743
 2018-Dec-24 08:08 Am  03 06 24.736301 -05 21 04.48939
 2018-Dec-24 08:09 Am  03 06 24.772870 -05 21 03.59135
 2018-Dec-24 08:10 Am  03 06 24.809458 -05 21 02.69332
 2018-Dec-24 08:11 Am  03 06 24.846065 -05 21 01.79530
 2018-Dec-24 08:12 Am  03 06 24.882691 -05 21 00.89729
 2018-Dec-24 08:13 Am  03 06 24.919335 -05 20 59.99928
 2018-Dec-24 08:14 Am  03 06 24.955997 -05 20 59.10128
 2018-Dec-24 08:15 Am  03 06 24.992678 -05 20 58.20329
 2018-Dec-24 08:16 Am  03 06 25.029378 -05 20 57.30531
 2018-Dec-24 08:17 Am  03 06 25.066096 -05 20 56.40733
 2018-Dec-24 08:18 Am  03 06 25.102832 -05 20 55.50937
 2018-Dec-24 08:19 Am  03 06 25.139587 -05 20 54.61141
 2018-Dec-24 08:20 Am  03 06 25.176360 -05 20 53.71346
 2018-Dec-24 08:21 Am  03 06 25.213152 -05 20 52.81551
 2018-Dec-24 08:22 Am  03 06 25.249962 -05 20 51.91758
 2018-Dec-24 08:23 Am  03 06 25.286791 -05 20 51.01965
 2018-Dec-24 08:24 Am  03 06 25.323638 -05 20 50.12173
 2018-Dec-24 08:25 Am  03 06 25.360503 -05 20 49.22383
 2018-Dec-24 08:26 Am  03 06 25.397387 -05 20 48.32592
 2018-Dec-24 08:27 Am  03 06 25.434289 -05 20 47.42803
 2018-Dec-24 08:28 Am  03 06 25.471210 -05 20 46.53015
 2018-Dec-24 08:29 Am  03 06 25.508149 -05 20 45.63228
 2018-Dec-24 08:30 Am  03 06 25.545106 -05 20 44.73441
 2018-Dec-24 08:31 Am  03 06 25.582081 -05 20 43.83656
 2018-Dec-24 08:32 Am  03 06 25.619075 -05 20 42.93872
 2018-Dec-24 08:33 Am  03 06 25.656086 -05 20 42.04088
 2018-Dec-24 08:34 Am  03 06 25.693117 -05 20 41.14305
 2018-Dec-24 08:35 Am  03 06 25.730165 -05 20 40.24524
 2018-Dec-24 08:36 Am  03 06 25.767231 -05 20 39.34743
 2018-Dec-24 08:37 Am  03 06 25.804316 -05 20 38.44964
 2018-Dec-24 08:38 Am  03 06 25.841419 -05 20 37.55185
 2018-Dec-24 08:39 Nm  03 06 25.878539 -05 20 36.65407
 2018-Dec-24 08:40 Nm  03 06 25.915678 -05 20 35.75631
 2018-Dec-24 08:41 Nm  03 06 25.952835 -05 20 34.85855
 2018-Dec-24 08:42 Nm  03 06 25.990010 -05 20 33.96081
 2018-Dec-24 08:43 Nm  03 06 26.027204 -05 20 33.06307
 2018-Dec-24 08:44 Nm  03 06 26.064415 -05 20 32.16535
 2018-Dec-24 08:45 Nm  03 06 26.101644 -05 20 31.26764
 2018-Dec-24 08:46 Nm  03 06 26.138891 -05 20 30.36994
 2018-Dec-24 08:47 Nm  03 06 26.176156 -05 20 29.47224
 2018-Dec-24 08:48 Nm  03 06 26.213439 -05 20 28.57456
 2018-Dec-24 08:49 Nm  03 06 26.250740 -05 20 27.67690
 2018-Dec-24 08:50 Nm  03 06 26.288059 -05 20 26.77924
 2018-Dec-24 08:51 Nm  03 06 26.325395 -05 20 25.88159
 2018-Dec-24 08:52 Nm  03 06 26.362750 -05 20 24.98396
 2018-Dec-24 08:53 Nm  03 06 26.400122 -05 20 24.08634
 2018-Dec-24 08:54 Nm  03 06 26.437512 -05 20 23.18873
 2018-Dec-24 08:55 Nm  03 06 26.474919 -05 20 22.29113
 2018-Dec-24 08:56 Nm  03 06 26.512345 -05 20 21.39354
 2018-Dec-24 08:57 Nm  03 06 26.549788 -05 20 20.49596
 2018-Dec-24 08:58 Nm  03 06 26.587249 -05 20 19.59840
 2018-Dec-24 08:59 Nm  03 06 26.624727 -05 20 18.70085
 2018-Dec-24 09:00 Nm  03 06 26.662223 -05 20 17.80331
 2018-Dec-24 09:01 Nm  03 06 26.699737 -05 20 16.90578
 2018-Dec-24 09:02 Nm  03 06 26.737268 -05 20 16.00827
 2018-Dec-24 09:03 Nm  03 06 26.774817 -05 20 15.11077
 2018-Dec-24 09:04 Nm  03 06 26.812383 -05 20 14.21328
 2018-Dec-24 09:05 Nm  03 06 26.849967 -05 20 13.31581
 2018-Dec-24 09:06 Nm  03 06 26.887568 -05 20 12.41834
 2018-Dec-24 09:07 Nm  03 06 26.925187 -05 20 11.52089
 2018-Dec-24 09:08 Nm  03 06 26.962823 -05 20 10.62346
 2018-Dec-24 09:09 Nm  03 06 27.000476 -05 20 09.72603
 2018-Dec-24 09:10 Nm  03 06 27.038147 -05 20 08.82862
 2018-Dec-24 09:11 Nm  03 06 27.075835 -05 20 07.93123
 2018-Dec-24 09:12 Nm  03 06 27.113540 -05 20 07.03385
 2018-Dec-24 09:13 Cm  03 06 27.151262 -05 20 06.13648
 2018-Dec-24 09:14 Cm  03 06 27.189002 -05 20 05.23912
 2018-Dec-24 09:15 Cm  03 06 27.226759 -05 20 04.34178
 2018-Dec-24 09:16 Cm  03 06 27.264532 -05 20 03.44445
 2018-Dec-24 09:17 Cm  03 06 27.302323 -05 20 02.54714
 2018-Dec-24 09:18 Cm  03 06 27.340132 -05 20 01.64984
 2018-Dec-24 09:19 Cm  03 06 27.377957 -05 20 00.75255
 2018-Dec-24 09:20 Cm  03 06 27.415799 -05 19 59.85528
 2018-Dec-24 09:21 Cm  03 06 27.453658 -05 19 58.95802
 2018-Dec-24 09:22 Cm  03 06 27.491534 -05 19 58.06078
 2018-Dec-24 09:23 Cm  03 06 27.529427 -05 19 57.16355
 2018-Dec-24 09:24 Cm  03 06 27.567337 -05 19 56.26634
 2018-Dec-24 09:25 Cm  03 06 27.605263 -05 19 55.36914
 2018-Dec-24 09:26 Cm  03 06 27.643207 -05 19 54.47196
 2018-Dec-24 09:27 Cm  03 06 27.681167 -05 19 53.57479
 2018-Dec-24 09:28 Cm  03 06 27.719143 -05 19 52.67764
 2018-Dec-24 09:29 Cm  03 06 27.757137 -05 19 51.78050
 2018-Dec-24 09:30 Cm  03 06 27.795147 -05 19 50.88337
